NORAD_CAT_ID,OBJECT_NAME,OBJECT_TYPE,EPOCH,MEAN_MOTION,ECCENTRICITY,INCLINATION,RA_OF_ASC_NODE,ARG_OF_PERICENTER,MEAN_ANOMALY,BSTAR,MEAN_MOTION_DOT,MEAN_MOTION_DDOT,TLE_LINE0,TLE_LINE1,TLE_LINE2,SEMIMAJOR_AXIS,PERIOD,APOGEE,PERIGEE,DECAYED
51129.0,STARLINK-3396,PAYLOAD,2022-07-31 18:38:12,15.08837211,0.0002018,53.2167,90.9891,60.935,299.1844,7.4314e-05,8.95e-06,0.0,0 STARLINK-3396,1 51129U 22005AB  22212.77652860  .00000895  00000-0  74314-4 0  9992,2 51129  53.2167  90.9891 0002018  60.9350 299.1844 15.08837211 31056,6917.889,95.438,541.15,538.3580000000002,0.0
51129.0,STARLINK-3396,PAYLOAD,2022-08-01 08:56:40,15.08836283,0.0002015,53.2168,88.3128,61.3676,298.7519,2.4807e-05,1.07e-06,0.0,0 STARLINK-3396,1 51129U 22005AB  22213.37269066  .00000107  00000-0  24807-4 0  9999,2 51129  53.2168  88.3128 0002015  61.3676 298.7519 15.08836283 30011,6917.892,95.438,541.151,538.363,0.0
51129.0,STARLINK-3396,PAYLOAD,2022-08-01 21:39:45,15.08841371,0.0001986999999999,53.2177,85.9336,62.4995,297.6199,8.0505e-05,9.93e-06,0.0,0 STARLINK-3396,1 51129U 22005AB  22213.90261067  .00000993  00000-0  80505-4 0  9991,2 51129  53.2177  85.9336 0001987  62.4995 297.6199 15.08841371 31228,6917.876,95.437,541.116,538.367,0.0
51129.0,STARLINK-3396,PAYLOAD,2022-08-02 08:47:27,15.0884633,0.0002003,53.2178,83.8523,62.7056,297.414,6.6459e-05,7.699999999999999e-06,0.0,0 STARLINK-3396,1 51129U 22005AB  22214.36628693  .00000770  00000-0  66459-4 0  9999,2 51129  53.2178  83.8523 0002003  62.7056 297.4140 15.08846330 30161,6917.861,95.437,541.112,538.34,0.0
51129.0,STARLINK-3396,PAYLOAD,2022-08-02 19:55:08,15.08847857,0.000199,53.2178,81.7707,63.1208,296.9988,0.0001283,1.755e-05,0.0,0 STARLINK-3396,1 51129U 22005AB  22214.82996329  .00001755  00000-0  12830-3 0  9991,2 51129  53.2178  81.7707 0001990  63.1208 296.9988 15.08847857 30237,6917.856,95.437,541.0980000000002,538.345,0.0
51129.0,STARLINK-3396,PAYLOAD,2022-08-03 10:13:39,15.08809018,0.0002103,53.2176,79.095,66.4013,293.72,0.00044438,6.785e-05,0.0,0 STARLINK-3396,1 51129U 22005AB  22215.42614707  .00006785  00000-0  44438-3 0  9992,2 51129  53.2176  79.0950 0002103  66.4013 293.7200 15.08809018 31456,6917.975,95.44,541.295,538.385,0.0
51129.0,STARLINK-3396,PAYLOAD,2022-08-03 16:35:10,15.0883888,0.0002163,53.2168,77.905,63.6148,296.5066,4.8751e-05,4.88e-06,0.0,0 STARLINK-3396,1 51129U 22005AB  22215.69109345  .00000488  00000-0  48751-4 0  9995,2 51129  53.2168  77.9050 0002163  63.6148 296.5066 15.08838880 31493,6917.884,95.438,541.245,538.252,0.0
51129.0,STARLINK-3396,PAYLOAD,2022-08-04 10:04:24,15.088446,0.0002012,53.2174,74.6339,65.0782,295.0419,7.4533e-05,8.98e-06,0.0,0 STARLINK-3396,1 51129U 22005AB  22216.41972835  .00000898  00000-0  74533-4 0  9990,2 51129  53.2174  74.6339 0002012  65.0782 295.0419 15.08844600 30477,6917.866,95.437,541.123,538.339,0.0
51129.0,STARLINK-3396,PAYLOAD,2022-08-04 16:25:56,15.08848429,0.0001998,53.2175,73.4447,65.2755,294.8445,8.148e-05,1.009e-05,0.0,0 STARLINK-3396,1 51129U 22005AB  22216.68468555  .00001009  00000-0  81480-4 0  9992,2 51129  53.2175  73.4447 0001998  65.2755 294.8445 15.08848429 31648,6917.855,95.437,541.102,538.337,0.0
51129.0,STARLINK-3396,PAYLOAD,2022-08-05 00:22:52,15.0884894,0.0002031,53.2167,71.9578,63.9392,296.1809,0.00013672,1.889e-05,0.0,0 STARLINK-3396,1 51129U 22005AB  22217.01588567  .00001889  00000-0  13672-3 0  9999,2 51129  53.2167  71.9578 0002031  63.9392 296.1809 15.08848940 30565,6917.853,95.437,541.123,538.313,0.0
51129.0,STARLINK-3396,PAYLOAD,2022-08-05 21:02:53,15.08839284,0.0001975,53.217,68.0923,65.7473,294.3725,7.8279e-05,9.58e-06,0.0,0 STARLINK-3396,1 51129U 22005AB  22217.87701348  .00000958  00000-0  78279-4 0  9998,2 51129  53.2170  68.0923 0001975  65.7473 294.3725 15.08839284 31824,6917.8830000000025,95.438,541.114,538.381,0.0
51129.0,STARLINK-3396,PAYLOAD,2022-08-06 06:35:12,15.08842383,0.0001972,53.2176,66.3084,67.8589,292.2613,7.5039e-05,9.06e-06,0.0,0 STARLINK-3396,1 51129U 22005AB  22218.27445245  .00000906  00000-0  75039-4 0  9998,2 51129  53.2176  66.3084 0001972  67.8589 292.2613 15.08842383 30755,6917.873000000001,95.437,541.102,538.374,0.0
51129.0,STARLINK-3396,PAYLOAD,2022-08-06 14:32:07,15.08848235,0.000193,53.2177,64.8214,67.0618,293.0578,8.8331e-05,1.118e-05,0.0,0 STARLINK-3396,1 51129U 22005AB  22218.60564797  .00001118  00000-0  88331-4 0  9994,2 51129  53.2177  64.8214 0001930  67.0618 293.0578 15.08848235 31935,6917.855,95.437,541.055,538.385,0.0
51129.0,STARLINK-3396,PAYLOAD,2022-08-06 20:53:40,15.0884469,0.0001906999999999,53.2179,63.6317,66.0342,294.085,5.1254e-05,5.28e-06,0.0,0 STARLINK-3396,1 51129U 22005AB  22218.87061058  .00000528  00000-0  51254-4 0  9993,2 51129  53.2179  63.6317 0001907  66.0342 294.0850 15.08844690 30849,6917.866,95.437,541.05,538.4119999999998,0.0
51129.0,STARLINK-3396,PAYLOAD,2022-08-07 00:04:27,15.08840554,0.000183,53.2184,63.0368,63.5352,296.5828,0.00012017,1.625e-05,0.0,0 STARLINK-3396,1 51129U 22005AB  22219.00309191  .00001625  00000-0  12017-3 0  9994,2 51129  53.2184  63.0368 0001830  63.5352 296.5828 15.08840554 31997,6917.879,95.438,541.01,538.4780000000002,0.0
51129.0,STARLINK-3396,PAYLOAD,2022-08-07 06:26:00,15.08830821,0.0001818,53.2177,61.8476,62.1886,297.9290000000001,6.0604e-05,6.76e-06,0.0,0 STARLINK-3396,1 51129U 22005AB  22219.26806128  .00000676  00000-0  60604-4 0  9995,2 51129  53.2177  61.8476 0001818  62.1886 297.9290 15.08830821 32038,6917.908,95.438,541.031,538.516,0.0
51129.0,STARLINK-3396,PAYLOAD,2022-08-07 12:47:32,15.08834357,0.0001784,53.2178,60.6579,61.9051,298.2122,9.3194e-05,1.195e-05,0.0,0 STARLINK-3396,1 51129U 22005AB  22219.53302015  .00001195  00000-0  93194-4 0  9998,2 51129  53.2178  60.6579 0001784  61.9051 298.2122 15.08834357 30947,6917.898,95.438,540.997,538.528,0.0
51129.0,STARLINK-3396,PAYLOAD,2022-08-07 19:09:05,15.08840528,0.0001795,53.2177,59.4685,63.2618,296.8558,9.2697e-05,1.188e-05,0.0,0 STARLINK-3396,1 51129U 22005AB  22219.79797678  .00001188  00000-0  92697-4 0  9998,2 51129  53.2177  59.4685 0001795  63.2618 296.8558 15.08840528 32111,6917.879,95.438,540.986,538.502,0.0
51129.0,STARLINK-3396,PAYLOAD,2022-08-07 20:44:28,15.08841735,0.0001808,53.2177,59.1711,63.5033,296.6145,0.00010199,1.336e-05,0.0,0 STARLINK-3396,1 51129U 22005AB  22219.86421590  .00001336  00000-0  10199-3 0  9994,2 51129  53.2177  59.1711 0001808  63.5033 296.6145 15.08841735 30992,6917.875,95.437,540.991,538.489,0.0
51129.0,STARLINK-3396,PAYLOAD,2022-08-08 07:52:09,15.08850746,0.0001781,53.2175,57.0896,64.8508,295.2669,0.00013094,1.797e-05,0.0,0 STARLINK-3396,1 51129U 22005AB  22220.32788911  .00001797  00000-0  13094-3 0  9998,2 51129  53.2175  57.0896 0001781  64.8508 295.2669 15.08850746 31069,6917.848000000001,95.437,540.945,538.48,0.0
51129.0,STARLINK-3396,PAYLOAD,2022-08-08 15:49:05,15.0885427,0.0001798,53.217,55.603,65.6254,294.4926,0.00023609,3.473e-05,0.0,0 STARLINK-3396,1 51129U 22005AB  22220.65908606  .00003473  00000-0  23609-3 0  9995,2 51129  53.2170  55.6030 0001798  65.6254 294.4926 15.08854270 31112,6917.837,95.437,540.946,538.4580000000002,0.0
51129.0,STARLINK-3396,PAYLOAD,2022-08-09 12:29:05,15.08847096,0.0001847,53.217,51.7369,67.1496,292.9691,0.00016942,2.410000000000001e-05,0.0,0 STARLINK-3396,1 51129U 22005AB  22221.52020705  .00002410  00000-0  16942-3 0  9999,2 51129  53.2170  51.7369 0001847  67.1496 292.9691 15.08847096 31248,6917.859,95.437,541.001,538.446,0.0
51129.0,STARLINK-3396,PAYLOAD,2022-08-09 17:15:15,15.08838428,0.0001793,53.2168,50.845,66.476,293.6421,-5.6261e-05,-1.183e-05,0.0,0 STARLINK-3396,1 51129U 22005AB  22221.71892906 -.00001183  00000-0 -56261-4 0  9997,2 51129  53.2168  50.8450 0001793  66.4760 293.6421 15.08838428 31273,6917.885,95.438,540.991,538.51,0.0
51129.0,STARLINK-3396,PAYLOAD,2022-08-09 18:50:38,15.0883934,0.0001774999999999,53.2173,50.5474,65.9671,294.1506,2.4328e-05,9.9e-07,0.0,0 STARLINK-3396,1 51129U 22005AB  22221.78517016  .00000099  00000-0  24328-4 0  9992,2 51129  53.2173  50.5474 0001775  65.9671 294.1506 15.08839340 32418,6917.882,95.438,540.975,538.519,0.0
51129.0,STARLINK-3396,PAYLOAD,2022-08-10 12:19:54,15.08827015,0.0001602,53.2181,47.2767,64.6169,295.4989,-1.4028e-05,-5.11e-06,0.0,0 STARLINK-3396,1 51129U 22005AB  22222.51382139 -.00000511  00000-0 -14028-4 0  9997,2 51129  53.2181  47.2767 0001602  64.6169 295.4989 15.08827015 32529,6917.92,95.438,540.893,538.677,0.0
51129.0,STARLINK-3396,PAYLOAD,2022-08-10 17:06:02,15.08881214,0.0001909,53.2182,46.38399999999999,59.0668,301.0512,-0.0007178,-0.00011707,0.0,0 STARLINK-3396,1 51129U 22005AB  22222.71252700 -.00011707  00000-0 -71780-3 0  9995,2 51129  53.2182  46.3840 0001909  59.0668 301.0512 15.08881214 32554,6917.754,95.435,540.94,538.299,0.0
51129.0,STARLINK-3396,PAYLOAD,2022-08-11 12:10:40,15.08833551,0.0001579,53.2181,42.8156,63.0842,297.0311,5.4359e-05,5.77e-06,0.0,0 STARLINK-3396,1 51129U 22005AB  22223.50741621  .00000577  00000-0  54359-4 0  9993,2 51129  53.2181  42.8156 0001579  63.0842 297.0311 15.08833551 31546,6917.9,95.438,540.857,538.673,0.0
51129.0,STARLINK-3396,PAYLOAD,2022-08-11 18:32:13,15.0883622,0.0001585999999999,53.2182,41.6262,63.2733,296.8421,7.436e-05,8.96e-06,0.0,0 STARLINK-3396,1 51129U 22005AB  22223.77237493  .00000896  00000-0  74360-4 0  9997,2 51129  53.2182  41.6262 0001586  63.2733 296.8421 15.08836220 32716,6917.892,95.438,540.854,538.66,0.0
51129.0,STARLINK-3396,PAYLOAD,2022-08-12 10:26:04,15.08840737,0.0001568,53.2183,38.6526,63.1213,296.9939,0.00016982,2.416e-05,0.0,0 STARLINK-3396,1 51129U 22005AB  22224.43476980  .00002416  00000-0  16982-3 0  9992,2 51129  53.2183  38.6526 0001568  63.1213 296.9939 15.08840737 31686,6917.878000000002,95.438,540.828,538.658,0.0
